[{"OBJECT_NAME":"STARLINK-3724","OBJECT_ID":"2022-041AW","EPOCH":"2026-03-09T09:36:04.916160","MEAN_MOTION":15.08841424,"ECCENTRICITY":0.0001474,"INCLINATION":53.2173,"RA_OF_ASC_NODE":100.5251,"ARG_OF_PERICENTER":86.0377,"MEAN_ANOMALY":274.0784,"EPHEMERIS_TYPE":0,"CLASSIFICATION_TYPE":"U","NORAD_CAT_ID":52305,"ELEMENT_SET_NO":999,"REV_AT_EPOCH":21446,"BSTAR":0.00040370289,"MEAN_MOTION_DOT":6.143e-5,"MEAN_MOTION_DDOT":0},{"OBJECT_NAME":"CZ-6A DEB","OBJECT_ID":"2022-151BX","EPOCH":"2026-03-09T18:04:18.424992","MEAN_MOTION":15.16566225,"ECCENTRICITY":0.00404449,"INCLINATION":98.6231,"RA_OF_ASC_NODE":169.9483,"ARG_OF_PERICENTER":104.1368,"MEAN_ANOMALY":256.4361,"EPHEMERIS_TYPE":0,"CLASSIFICATION_TYPE":"U","NORAD_CAT_ID":54328,"ELEMENT_SET_NO":999,"REV_AT_EPOCH":10563,"BSTAR":0.0050960293,"MEAN_MOTION_DOT":0.00102794,"MEAN_MOTION_DDOT":0}]
